{"epoch":1784838743,"count":18315,"objects":[{"id":"25623","name":"GLOBALSTAR M036","type":"PAYLOAD","l1":"1 25623U 99004C   26204.34420852 -.00000074  00000-0  13471-3 0  9993","l2":"2 25623  51.9957 262.9265 0011245 103.7883 337.1336 11.86625244226602"},{"id":"25624","name":"GLOBALSTAR M038","type":"PAYLOAD","l1":"1 25624U 99004D   26204.42581978 -.00000081  00000-0  11386-3 0  9991","l2":"2 25624  51.9996 356.0259 0002176 149.2675 227.5727 12.32547723251859"},{"id":"25626","name":"GALAXY 26 (TELSTAR 6)","type":"PAYLOAD","l1":"1 25626U 99005A   26204.42348653 -.00000247  00000-0  00000-0 0  9997","l2":"2 25626  11.7169  46.5218 0004016 119.6958  53.8770  0.98998869 44356"},{"id":"25630","name":"JCSAT 6","type":"PAYLOAD","l1":"1 25630U 99006A   26204.38347594  .00000027  00000-0  00000-0 0  9996","l2":"2 25630   9.7657  55.5720 0023846  47.1832 202.2692  0.98810263 16562"},{"id":"25634","name":"ARGOS","type":"PAYLOAD","l1":"1 25634U 99008A   26204.34569572  .00000041  00000-0  38956-4 0  9991","l2":"2 25634  98.5151 169.0671 0009094 299.4127  60.6141 14.19994361419433"},{"id":"25635","name":"ORSTED","type":"PAYLOAD","l1":"1 25635U 99008B   26204.43386336  .00000541  00000-0  12658-3 0  9992","l2":"2 25635  96.4793 103.7098 0133477  70.6720 290.8858 14.51840017447226"},{"id":"25636","name":"SUNSAT","type":"PAYLOAD","l1":"1 25636U 99008C   26204.57760459  .00000139  00000-0  42099-4 0  9996","l2":"2 25636  96.4653  72.7849 0140788 211.8198 147.4438 14.46484214444496"},{"id":"25638","name":"ARABSAT 3A","type":"PAYLOAD","l1":"1 25638U 99009A   26204.37178096 -.00000025  00000-0  00000-0 0  9994","l2":"2 25638  11.9926  32.1899 0003733  17.9725 199.4881  1.00176957100325"},{"id":"25639","name":"SKYNET 4E","type":"PAYLOAD","l1":"1 25639U 99009B   26204.55009150  .00000036  00000-0  00000-0 0  9990","l2":"2 25639  12.0899   8.8936 0001902 231.0762 305.3256  0.99026451 51515"},{"id":"25642","name":"RADUGA 1-4","type":"PAYLOAD","l1":"1 25642U 99010A   26204.41634949 -.00000239  00000-0  00000-0 0  9997","l2":"2 25642  15.6461   1.3115 0005326 279.9494 260.2087  1.00197444100315"},{"id":"25649","name":"GLOBALSTAR M022","type":"PAYLOAD","l1":"1 25649U 99012A   26204.38995236 -.00000088  00000-0 -12917-4 0  9998","l2":"2 25649  52.0041 280.2341 0002456 229.8667 210.3957 12.02514817224643"},{"id":"25650","name":"GLOBALSTAR M041","type":"PAYLOAD","l1":"1 25650U 99012B   26204.22883291 -.00000059  00000-0  34052-3 0  9990","l2":"2 25650  51.9994 174.3492 0001839  24.6447 335.4477 11.96690578226291"},{"id":"25651","name":"GLOBALSTAR M046","type":"PAYLOAD","l1":"1 25651U 99012C   26204.35485417  .00000038  00000-0  13962-2 0  9995","l2":"2 25651  52.0023 215.8189 0001837 328.0843 135.1941 12.09424650232200"},{"id":"25652","name":"GLOBALSTAR M037","type":"PAYLOAD","l1":"1 25652U 99012D   26204.56952462 -.00000083  00000-0  11340-3 0  9998","l2":"2 25652  52.0015  41.6641 0002261  18.2426 358.8856 12.62468949261970"},{"id":"25657","name":"ASIASAT 3S","type":"PAYLOAD","l1":"1 25657U 99013A   26204.42398525 -.00000085  00000-0  00000-0 0  9993","l2":"2 25657   9.8954  54.5063 0004382  49.0149 187.1925  0.98875201 99943"},{"id":"25661","name":"SEA LAUNCH DEMO","type":"PAYLOAD","l1":"1 25661U 99014A   26203.76418278 -.00000178  00000-0  64962-3 0  9996","l2":"2 25661   1.4713 335.7335 7171096 328.6541   3.7187  2.23256258222903"},{"id":"25666","name":"INSAT 2E (APR-1)","type":"PAYLOAD","l1":"1 25666U 99016A   26204.00253102 -.00000242  00000-0  00000-0 0  9996","l2":"2 25666  11.4159  39.9868 0008620 299.3028 258.4131  0.99655064 51790"},{"id":"25669","name":"USA 142","type":"PAYLOAD","l1":"1 25669U 99017A   26204.31226734  .00000044  00000-0  64088-3 0  9993","l2":"2 25669  29.1490  52.6336 7099351 163.0009 245.9503  2.33047886 19136"},{"id":"25673","name":"EUTE 21A (EUTE W3)","type":"PAYLOAD","l1":"1 25673U 99018A   26204.49558834 -.00000111  00000-0  00000-0 0  9994","l2":"2 25673  10.6294  50.3662 0008266 113.3198  68.2956  0.98429808 41916"},{"id":"25676","name":"GLOBALSTAR M045","type":"PAYLOAD","l1":"1 25676U 99019A   26204.54472890 -.00000069  00000-0  21842-3 0  9993","l2":"2 25676  51.9944 241.2969 0000404 174.5621 351.0153 12.27075979242664"},{"id":"25677","name":"GLOBALSTAR M019","type":"PAYLOAD","l1":"1 25677U 99019B   26204.51002060  .00000046  00000-0  14174-2 0  9992","l2":"2 25677  51.9892  40.0076 0002272  54.7220 320.9131 12.13887475233882"},{"id":"25678","name":"GLOBALSTAR M044","type":"PAYLOAD","l1":"1 25678U 99019C   26204.28267131 -.00000087  00000-0 -52035-4 0  9996","l2":"2 25678  51.9981  42.1744 0006870  89.9533  81.5226 11.90265350219089"},{"id":"25679","name":"GLOBALSTAR M042","type":"PAYLOAD","l1":"1 25679U 99019D   26204.38987172 -.00000148  00000-0 -52479-3 0  9991","l2":"2 25679  52.0038 358.3261 0003480  63.4844 311.5184 12.22099983234312"},{"id":"25682","name":"LANDSAT 7","type":"PAYLOAD","l1":"1 25682U 99020A   26204.54733942  .00000337  00000-0  72893-4 0  9990","l2":"2 25682  97.8595 206.5190 0001416  77.0391  35.4784 14.63943603451167"},{"id":"25693","name":"OSCAR 36 (UOSAT 12)","type":"PAYLOAD","l1":"1 25693U 99021A   26204.55442402  .00000270  00000-0  49722-4 0  9993","l2":"2 25693  64.5559 307.6197 0023716 220.8311 139.1020 14.84292063472244"},{"id":"25724","name":"USA 143","type":"PAYLOAD","l1":"1 25724U 99023A   26204.52884609  .00000081  00000-0  70883-3 0  9997","l2":"2 25724  28.2220 256.6211 2131013 359.8950   0.0955  9.37519415 75769"},{"id":"25727","name":"ORION 3","type":"PAYLOAD","l1":"1 25727U 99024A   26204.13810920  .00000106  00000-0  14386-2 0  9996","l2":"2 25727  19.8245 240.3724 0041091 271.0991  88.4629 10.39160836 72553"},{"id":"25730","name":"FENGYUN 1C","type":"PAYLOAD","l1":"1 25730U 99025A   26204.48228776  .00000692  00000-0  30222-3 0  9999","l2":"2 25730  98.8634 278.4869 0013668 150.1058 210.0905 14.27095145403131"},{"id":"25731","name":"SJ-5","type":"PAYLOAD","l1":"1 25731U 99025B   26204.58312656  .00000009  00000-0  28193-4 0  9999","l2":"2 25731  98.7241 246.0757 0015842 250.1720 109.7745 14.12936097400468"},{"id":"25736","name":"MUBLCOM","type":"PAYLOAD","l1":"1 25736U 99026B   26204.31584431  .00000918  00000-0  21193-3 0  9999","l2":"2 25736  97.6820  61.3701 0005840 111.6947 248.4875 14.57273626435105"},{"id":"25740","name":"NIMIQ 1","type":"PAYLOAD","l1":"1 25740U 99027A   26204.12828381  .00000034  00000-0  00000-0 0  9999","l2":"2 25740   6.7147  70.3782 0008587 321.8566  30.2604  0.98577870 99128"},{"id":"25756","name":"KITSAT 3","type":"PAYLOAD","l1":"1 25756U 99029A   26204.56990521  .00000180  00000-0  52187-4 0  9991","l2":"2 25756  98.6160 241.3222 0013916 147.0546 213.1521 14.55817789440323"},{"id":"25757","name":"TUBSAT","type":"PAYLOAD","l1":"1 25757U 99029B   26204.59850920  .00000069  00000-0  28767-4 0  9996","l2":"2 25757  98.6718 201.3045 0013168 237.0285 122.9644 14.52434613438532"},{"id":"25758","name":"IRS P4 (OCEANSAT 1)","type":"PAYLOAD","l1":"1 25758U 99029C   26204.34206485  .00000229  00000-0  62677-4 0  9997","l2":"2 25758  97.9720 175.6534 0003985  55.0979 305.0593 14.55300956439373"},{"id":"25770","name":"GLOBALSTAR M025","type":"PAYLOAD","l1":"1 25770U 99031A   26204.62678909 -.00000057  00000-0  31720-3 0  9993","l2":"2 25770  51.9842 309.3023 0002476  95.7099 308.5646 11.22566566526791"},{"id":"25771","name":"GLOBALSTAR M049","type":"PAYLOAD","l1":"1 25771U 99031B   26203.85928874 -.00000115  00000-0 -17341-2 0  9995","l2":"2 25771  51.9905   5.9705 0001955 342.6422  17.4308 11.12132943162001"},{"id":"25772","name":"GLOBALSTAR M047","type":"PAYLOAD","l1":"1 25772U 99031C   26204.32965757 -.00000062  00000-0  20790-3 0  9993","l2":"2 25772  51.9865 323.5540 0016173 229.8085 130.1305 11.31934306516537"},{"id":"25773","name":"GLOBALSTAR M052","type":"PAYLOAD","l1":"1 25773U 99031D   26204.14337867 -.00000053  00000-0  42084-3 0  9999","l2":"2 25773  51.9863 108.3697 0002496 100.4324  70.6733 11.15064980523233"},{"id":"25785","name":"ASTRA 1H","type":"PAYLOAD","l1":"1 25785U 99033A   26204.39511605 -.00000235  00000-0  00000-0 0  9996","l2":"2 25785  10.7099  48.0185 0010024 146.6005 232.1935  0.98946354 51458"},{"id":"25789","name":"QUIKSCAT","type":"PAYLOAD","l1":"1 25789U 99034A   26204.61815858  .00000246  00000-0  69177-4 0  9998","l2":"2 25789  98.2643  84.6183 0095263 169.6922 190.6257 14.51747143417802"},{"id":"25791","name":"FUSE 1","type":"PAYLOAD","l1":"1 25791U 99035A   26204.19448377  .00000383  00000-0  57447-4 0  9992","l2":"2 25791  24.9833 145.0047 0010415 107.2315 252.9333 14.44493073429175"},{"id":"25847","name":"MOLNIYA 3-50","type":"PAYLOAD","l1":"1 25847U 99036A   26203.91205666  .00000301  00000-0  00000-0 0  9995","l2":"2 25847  63.5285 151.9699 6756830 276.6962  16.4870  2.00636013198139"},{"id":"25851","name":"GLOBALSTAR M035","type":"PAYLOAD","l1":"1 25851U 99037A   26204.51045633 -.00000053  00000-0  39481-3 0  9997","l2":"2 25851  51.9918 239.9707 0014104 271.1410 259.5974 11.04543340140606"},{"id":"25852","name":"GLOBALSTAR M032","type":"PAYLOAD","l1":"1 25852U 99037B   26204.48218246 -.00000079  00000-0 -40428-3 0  9998","l2":"2 25852  51.9966  37.5445 0013023 119.8260 240.3836 11.19068524179712"},{"id":"25853","name":"GLOBALSTAR M051","type":"PAYLOAD","l1":"1 25853U 99037C   26204.21302959 -.00000055  00000-0  42185-3 0  9990","l2":"2 25853  51.9774 153.4650 0000906 341.6871  18.3907 11.42206261178219"},{"id":"25854","name":"GLOBALSTAR M030","type":"PAYLOAD","l1":"1 25854U 99037D   26204.25714240 -.00000060  00000-0  30934-3 0  9990","l2":"2 25854  51.9886 293.9559 0003695  47.3382 312.7746 11.55116367196399"},{"id":"25860","name":"OKEAN O","type":"PAYLOAD","l1":"1 25860U 99039A   26204.50630833  .00000463  00000-0  67254-4 0  9994","l2":"2 25860  97.9293 262.8835 0000941 102.7494 257.3823 14.80504211454488"}]}